0 DELTA 2 R/B(1)
1 20362U 89097B   13282.13181521  .00014777  00000-0  62398-3 0  2691
2 20362 035.6234 159.9444 0125045 065.1104 066.2989 15.15586055292697
0 DELTA 2 R/B(1)
1 20362U 89097B   13283.83032332  .00014296  00000-0  60347-3 0  2704
2 20362 035.6236 149.4618 0124838 080.0988 333.5252 15.15625475292953
0 DELTA 2 R/B(1)
1 20362U 89097B   13286.79685155  .00013043  00000-0  55000-3 0  2720
2 20362 035.6235 131.1525 0124661 106.2150 319.8531 15.15694556293407
0 DELTA 2 R/B(1)
1 20362U 89097B   13287.99361660  .00019783  00000-0  83116-3 0  2732
2 20362 035.6231 123.7652 0124654 116.7380 010.0156 15.15727487293586
0 DELTA 2 R/B(1)
1 20362U 89097B   13289.62777519  .00018488  00000-0  77568-3 0  2744
2 20362 035.6231 113.6762 0124737 131.1010 287.0893 15.15775340293832
0 DELTA 2 R/B(1)
1 20362U 89097B   13291.53498443  .00016809  00000-0  70423-3 0  2752
2 20362 035.6240 101.9021 0124739 147.8300 254.5002 15.15834650294122
0 DELTA 2 R/B(1)
1 20362U 89097B   13292.80265286  .00015613  00000-0  65333-3 0  2767
2 20362 035.6243 094.0752 0124877 158.9525 332.2296 15.15872275294318
0 DELTA 2 R/B(1)
1 20362U 89097B   13293.92359704  .00016672  00000-0  69625-3 0  2775
2 20362 035.6246 087.1540 0125006 168.7907 329.4317 15.15908242294481
0 DELTA 2 R/B(1)
1 20362U 89097B   13295.48852222  .00019576  00000-0  81538-3 0  2785
2 20362 035.6252 077.4922 0125069 182.4718 229.7962 15.15954577294723
